CCSDS_OMM_VERS = 2.0
CREATION_DATE  = 
ORIGINATOR     = 

OBJECT_NAME    = SL-16 R/B
OBJECT_ID      = 1993-016B
CENTER_NAME    = EARTH
REF_FRAME      = TEME
TIME_SYSTEM    = UTC
MEAN_ELEMENT_THEORY = SGP/SGP4

EPOCH          = 2025-12-19T04:58:51.826656
MEAN_MOTION    = 14.15288648
ECCENTRICITY   = .00080122
INCLINATION    = 71.0079
RA_OF_ASC_NODE = 24.2194
ARG_OF_PERICENTER = 85.0882
MEAN_ANOMALY   = 275.1155

EPHEMERIS_TYPE = 0
CLASSIFICATION_TYPE = U
NORAD_CAT_ID   = 22566
ELEMENT_SET_NO = 999
REV_AT_EPOCH   = 69078
BSTAR          = .15270418E-3
MEAN_MOTION_DOT = .25E-5
MEAN_MOTION_DDOT = 0

CCSDS_OMM_VERS = 2.0
CREATION_DATE  = 
ORIGINATOR     = 

OBJECT_NAME    = COSMOS 2242
OBJECT_ID      = 1993-024A
CENTER_NAME    = EARTH
REF_FRAME      = TEME
TIME_SYSTEM    = UTC
MEAN_ELEMENT_THEORY = SGP/SGP4

EPOCH          = 2025-12-19T06:10:06.021696
MEAN_MOTION    = 14.96131294
ECCENTRICITY   = .00153821
INCLINATION    = 82.5184
RA_OF_ASC_NODE = 343.6150
ARG_OF_PERICENTER = 210.6356
MEAN_ANOMALY   = 149.3970

EPHEMERIS_TYPE = 0
CLASSIFICATION_TYPE = U
NORAD_CAT_ID   = 22626
ELEMENT_SET_NO = 999
REV_AT_EPOCH   = 76836
BSTAR          = .13764319E-3
MEAN_MOTION_DOT = .1578E-4
MEAN_MOTION_DDOT = 0

CCSDS_OMM_VERS = 2.0
CREATION_DATE  = 
ORIGINATOR     = 

OBJECT_NAME    = SL-16 R/B
OBJECT_ID      = 1993-059B
CENTER_NAME    = EARTH
REF_FRAME      = TEME
TIME_SYSTEM    = UTC
MEAN_ELEMENT_THEORY = SGP/SGP4

EPOCH          = 2025-12-19T05:24:57.938976
MEAN_MOTION    = 14.17213131
ECCENTRICITY   = .00183164
INCLINATION    = 70.9879
RA_OF_ASC_NODE = 180.8088
ARG_OF_PERICENTER = 326.4715
MEAN_ANOMALY   = 33.5248

EPHEMERIS_TYPE = 0
CLASSIFICATION_TYPE = U
NORAD_CAT_ID   = 22803
ELEMENT_SET_NO = 999
REV_AT_EPOCH   = 66813
BSTAR          = .24877195E-4
MEAN_MOTION_DOT = .2E-7
MEAN_MOTION_DDOT = 0

CCSDS_OMM_VERS = 2.0
CREATION_DATE  = 
ORIGINATOR     = 

OBJECT_NAME    = ARIANE 40 R/B
OBJECT_ID      = 1993-061H
CENTER_NAME    = EARTH
REF_FRAME      = TEME
TIME_SYSTEM    = UTC
MEAN_ELEMENT_THEORY = SGP/SGP4

EPOCH          = 2025-12-19T04:22:56.878464
MEAN_MOTION    = 14.32805502
ECCENTRICITY   = .00112349
INCLINATION    = 98.5069
RA_OF_ASC_NODE = 58.5952
ARG_OF_PERICENTER = 157.5340
MEAN_ANOMALY   = 202.6339

EPHEMERIS_TYPE = 0
CLASSIFICATION_TYPE = U
NORAD_CAT_ID   = 22830
ELEMENT_SET_NO = 999
REV_AT_EPOCH   = 68257
BSTAR          = .89514947E-4
MEAN_MOTION_DOT = .201E-5
MEAN_MOTION_DDOT = 0

CCSDS_OMM_VERS = 2.0
CREATION_DATE  = 
ORIGINATOR     = 

OBJECT_NAME    = COSMOS 2278
OBJECT_ID      = 1994-023A
CENTER_NAME    = EARTH
REF_FRAME      = TEME
TIME_SYSTEM    = UTC
MEAN_ELEMENT_THEORY = SGP/SGP4

EPOCH          = 2025-12-19T04:25:02.904960
MEAN_MOTION    = 14.14348514
ECCENTRICITY   = .00079867
INCLINATION    = 71.0534
RA_OF_ASC_NODE = 343.5279
ARG_OF_PERICENTER = 168.4255
MEAN_ANOMALY   = 191.7053

EPHEMERIS_TYPE = 0
CLASSIFICATION_TYPE = U
NORAD_CAT_ID   = 23087
ELEMENT_SET_NO = 999
REV_AT_EPOCH   = 63342
BSTAR          = -.76161465E-4
MEAN_MOTION_DOT = -.193E-5
MEAN_MOTION_DDOT = 0

CCSDS_OMM_VERS = 2.0
CREATION_DATE  = 
ORIGINATOR     = 

OBJECT_NAME    = SL-16 R/B
OBJECT_ID      = 1994-023B
CENTER_NAME    = EARTH
REF_FRAME      = TEME
TIME_SYSTEM    = UTC
MEAN_ELEMENT_THEORY = SGP/SGP4

EPOCH          = 2025-12-19T03:01:10.664832
MEAN_MOTION    = 14.15001987
ECCENTRICITY   = .00017452
INCLINATION    = 70.9993
RA_OF_ASC_NODE = 240.0753
ARG_OF_PERICENTER = 10.4581
MEAN_ANOMALY   = 349.6577

EPHEMERIS_TYPE = 0
CLASSIFICATION_TYPE = U
NORAD_CAT_ID   = 23088
ELEMENT_SET_NO = 999
REV_AT_EPOCH   = 63469
BSTAR          = -.76866464E-4
MEAN_MOTION_DOT = -.197E-5
MEAN_MOTION_DDOT = 0

CCSDS_OMM_VERS = 2.0
CREATION_DATE  = 
ORIGINATOR     = 

OBJECT_NAME    = SL-16 R/B
OBJECT_ID      = 1994-074B
CENTER_NAME    = EARTH
REF_FRAME      = TEME
TIME_SYSTEM    = UTC
MEAN_ELEMENT_THEORY = SGP/SGP4

EPOCH          = 2025-12-19T02:25:51.087072
MEAN_MOTION    = 14.79296640
ECCENTRICITY   = .00078708
INCLINATION    = 97.7194
RA_OF_ASC_NODE = 22.1529
ARG_OF_PERICENTER = 118.3040
MEAN_ANOMALY   = 305.6032

EPHEMERIS_TYPE = 0
CLASSIFICATION_TYPE = U
NORAD_CAT_ID   = 23343
ELEMENT_SET_NO = 999
REV_AT_EPOCH   = 67533
BSTAR          = .56730746E-4
MEAN_MOTION_DOT = .373E-5
MEAN_MOTION_DDOT = 0

CCSDS_OMM_VERS = 2.0
CREATION_DATE  = 
ORIGINATOR     = 

OBJECT_NAME    = SL-16 R/B
OBJECT_ID      = 1994-077B
CENTER_NAME    = EARTH
REF_FRAME      = TEME
TIME_SYSTEM    = UTC
MEAN_ELEMENT_THEORY = SGP/SGP4

EPOCH          = 2025-12-19T05:01:43.164768
MEAN_MOTION    = 14.15552831
ECCENTRICITY   = .0004936
INCLINATION    = 70.9819
RA_OF_ASC_NODE = 161.8035
ARG_OF_PERICENTER = 280.9423
MEAN_ANOMALY   = 79.1144

EPHEMERIS_TYPE = 0
CLASSIFICATION_TYPE = U
NORAD_CAT_ID   = 23405
ELEMENT_SET_NO = 999
REV_AT_EPOCH   = 60484
BSTAR          = .4257453E-4
MEAN_MOTION_DOT = .35E-6
MEAN_MOTION_DDOT = 0

CCSDS_OMM_VERS = 2.0
CREATION_DATE  = 
ORIGINATOR     = 

OBJECT_NAME    = ARIANE 40+ R/B
OBJECT_ID      = 1995-021B
CENTER_NAME    = EARTH
REF_FRAME      = TEME
TIME_SYSTEM    = UTC
MEAN_ELEMENT_THEORY = SGP/SGP4

EPOCH          = 2025-12-19T02:59:03.028704
MEAN_MOTION    = 14.39700186
ECCENTRICITY   = .0007177
INCLINATION    = 98.4645
RA_OF_ASC_NODE = 60.6361
ARG_OF_PERICENTER = 32.5283
MEAN_ANOMALY   = 356.6684

EPHEMERIS_TYPE = 0
CLASSIFICATION_TYPE = U
NORAD_CAT_ID   = 23561
ELEMENT_SET_NO = 999
REV_AT_EPOCH   = 60765
BSTAR          = .92902737E-4
MEAN_MOTION_DOT = .247E-5
MEAN_MOTION_DDOT = 0

CCSDS_OMM_VERS = 2.0
CREATION_DATE  = 
ORIGINATOR     = 

OBJECT_NAME    = SL-16 R/B
OBJECT_ID      = 1995-058B
CENTER_NAME    = EARTH
REF_FRAME      = TEME
TIME_SYSTEM    = UTC
MEAN_ELEMENT_THEORY = SGP/SGP4

EPOCH          = 2025-12-19T06:47:48.374592
MEAN_MOTION    = 14.15483305
ECCENTRICITY   = .00149057
INCLINATION    = 71.0222
RA_OF_ASC_NODE = 349.0664
ARG_OF_PERICENTER = 246.9520
MEAN_ANOMALY   = 113.0032

EPHEMERIS_TYPE = 0
CLASSIFICATION_TYPE = U
NORAD_CAT_ID   = 23705
ELEMENT_SET_NO = 999
REV_AT_EPOCH   = 55647
BSTAR          = -.88690974E-4
MEAN_MOTION_DOT = -.221E-5
MEAN_MOTION_DDOT = 0

CCSDS_OMM_VERS = 2.0
CREATION_DATE  = 
ORIGINATOR     = 

OBJECT_NAME    = SL-16 R/B
OBJECT_ID      = 1996-051B
CENTER_NAME    = EARTH
REF_FRAME      = TEME
TIME_SYSTEM    = UTC
MEAN_ELEMENT_THEORY = SGP/SGP4

EPOCH          = 2025-12-19T05:12:04.720320
MEAN_MOTION    = 14.12397332
ECCENTRICITY   = .00194706
INCLINATION    = 70.7595
RA_OF_ASC_NODE = 345.5738
ARG_OF_PERICENTER = 253.4024
MEAN_ANOMALY   = 106.4958

EPHEMERIS_TYPE = 0
CLASSIFICATION_TYPE = U
NORAD_CAT_ID   = 24298
ELEMENT_SET_NO = 999
REV_AT_EPOCH   = 51028
BSTAR          = .9147301E-5
MEAN_MOTION_DOT = -.32E-6
MEAN_MOTION_DDOT = 0

CCSDS_OMM_VERS = 2.0
CREATION_DATE  = 
ORIGINATOR     = 

OBJECT_NAME    = ORBVIEW 2 (SEASTAR)
OBJECT_ID      = 1997-037A
CENTER_NAME    = EARTH
REF_FRAME      = TEME
TIME_SYSTEM    = UTC
MEAN_ELEMENT_THEORY = SGP/SGP4

EPOCH          = 2025-12-19T04:31:53.824224
MEAN_MOTION    = 14.35421482
ECCENTRICITY   = .0001399
INCLINATION    = 98.8460
RA_OF_ASC_NODE = 150.4257
ARG_OF_PERICENTER = 315.9084
MEAN_ANOMALY   = 44.1989

EPHEMERIS_TYPE = 0
CLASSIFICATION_TYPE = U
NORAD_CAT_ID   = 24883
ELEMENT_SET_NO = 999
REV_AT_EPOCH   = 49692
BSTAR          = .82825636E-4
MEAN_MOTION_DOT = .191E-5
MEAN_MOTION_DDOT = 0

