SL-16 R/B               
1 22566U 93016B   25353.20754429  .00000250  00000+0  15270-3 0  9995
2 22566  71.0079  24.2194 0008012  85.0882 275.1155 14.15288648690784
COSMOS 2242             
1 22626U 93024A   25353.25701414  .00001578  00000+0  13764-3 0  9992
2 22626  82.5184 343.6150 0015382 210.6356 149.3970 14.96131294768365
SL-16 R/B               
1 22803U 93059B   25353.22567059  .00000002  00000+0  24877-4 0  9998
2 22803  70.9879 180.8088 0018316 326.4715  33.5248 14.17213131668130
ARIANE 40 R/B           
1 22830U 93061H   25353.18260276  .00000201  00000+0  89515-4 0  9998
2 22830  98.5069  58.5952 0011234 157.5340 202.6339 14.32805502682577
COSMOS 2278             
1 23087U 94023A   25353.18406140 -.00000193  00000+0 -76161-4 0  9999
2 23087  71.0534 343.5279 0007986 168.4255 191.7053 14.14348514633425
SL-16 R/B               
1 23088U 94023B   25353.12581788 -.00000197  00000+0 -76866-4 0  9992
2 23088  70.9993 240.0753 0001745  10.4581 349.6577 14.15001987634692
SL-16 R/B               
1 23343U 94074B   25353.10128573  .00000373  00000+0  56731-4 0  9992
2 23343  97.7194  22.1529 0007870 118.3040 305.6032 14.79296640675335
SL-16 R/B               
1 23405U 94077B   25353.20952737  .00000035  00000+0  42575-4 0  9998
2 23405  70.9819 161.8035 0004936 280.9423  79.1144 14.15552831604847
ARIANE 40+ R/B          
1 23561U 95021B   25353.12434061  .00000247  00000+0  92903-4 0  9992
2 23561  98.4645  60.6361 0007177  32.5283 356.6684 14.39700186607653
SL-16 R/B               
1 23705U 95058B   25353.28319878 -.00000221  00000+0 -88691-4 0  9990
2 23705  71.0222 349.0664 0014905 246.9520 113.0032 14.15483305556473
SL-16 R/B               
1 24298U 96051B   25353.21672130 -.00000032  00000+0  91473-5 0  9990
2 24298  70.7595 345.5738 0019470 253.4024 106.4958 14.12397332510280
ORBVIEW 2 (SEASTAR)     
1 24883U 97037A   25353.18881741  .00000191  00000+0  82826-4 0  9997
2 24883  98.8460 150.4257 0001399 315.9084  44.1989 14.35421482496927
